STARLINK-2022           
1 47643U 21012Z   24228.90363255  .00027185  00000+0  18358-2 0  9990
2 47643  53.0529  93.9761 0001022  91.8987 268.2119 15.06422736193718
